{"fetched_at":"2026-07-13T18:17:12.578Z","source":"https://celestrak.org/NORAD/elements/gp.php?NAME=RADARSAT&FORMAT=JSON","constellation":"radarsat-2","records":[{"OBJECT_NAME":"RADARSAT-2","OBJECT_ID":"2007-061A","EPOCH":"2026-07-13T06:38:43.224288","CLASSIFICATION_TYPE":"U","MEAN_MOTION":14.29983718,"ECCENTRICITY":0.00013367,"INCLINATION":98.5781,"RA_OF_ASC_NODE":200.8367,"ARG_OF_PERICENTER":83.7691,"MEAN_ANOMALY":276.3643,"EPHEMERIS_TYPE":0,"NORAD_CAT_ID":32382,"ELEMENT_SET_NO":999,"REV_AT_EPOCH":96968,"BSTAR":0.00011832784,"MEAN_MOTION_DOT":0.00000262,"MEAN_MOTION_DDOT":0}]}
