RADARSAT-2              
1 32382U 07061A   26194.27688917  .00000262  00000+0  11833-3 0  9990
2 32382  98.5781 200.8367 0001336  83.7691 276.3643 14.29983718969682
